[{"OBJECT_NAME":"STARLINK-30476","OBJECT_ID":"2023-147T","EPOCH":"2026-03-09T21:58:09.534432","MEAN_MOTION":15.36840948,"ECCENTRICITY":0.00192261,"INCLINATION":42.9949,"RA_OF_ASC_NODE":270.5227,"ARG_OF_PERICENTER":243.5984,"MEAN_ANOMALY":116.2898,"EPHEMERIS_TYPE":0,"CLASSIFICATION_TYPE":"U","NORAD_CAT_ID":57930,"ELEMENT_SET_NO":999,"REV_AT_EPOCH":13725,"BSTAR":0.0025736749,"MEAN_MOTION_DOT":0.00096215,"MEAN_MOTION_DDOT":0},{"OBJECT_NAME":"CTC-0","OBJECT_ID":"2024-247AA","EPOCH":"2026-03-09T02:21:16.090560","MEAN_MOTION":15.35770966,"ECCENTRICITY":0.00061541,"INCLINATION":44.9724,"RA_OF_ASC_NODE":105.2667,"ARG_OF_PERICENTER":12.6672,"MEAN_ANOMALY":347.4368,"EPHEMERIS_TYPE":0,"CLASSIFICATION_TYPE":"U","NORAD_CAT_ID":62401,"ELEMENT_SET_NO":999,"REV_AT_EPOCH":6781,"BSTAR":0.0007111017,"MEAN_MOTION_DOT":0.00025023,"MEAN_MOTION_DDOT":0}]
